[{"OBJECT_NAME":"CUPID","OBJECT_ID":"2021-088E","EPOCH":"2026-03-09T16:04:42.796128","MEAN_MOTION":15.24473777,"ECCENTRICITY":0.0013746,"INCLINATION":97.3985,"RA_OF_ASC_NODE":131.0756,"ARG_OF_PERICENTER":59.9938,"MEAN_ANOMALY":300.2662,"EPHEMERIS_TYPE":0,"CLASSIFICATION_TYPE":"U","NORAD_CAT_ID":49264,"ELEMENT_SET_NO":999,"REV_AT_EPOCH":24501,"BSTAR":0.00038662302,"MEAN_MOTION_DOT":9.454e-5,"MEAN_MOTION_DDOT":0},{"OBJECT_NAME":"STARLINK-35767","OBJECT_ID":"2025-294AE","EPOCH":"2026-03-09T06:45:48.990528","MEAN_MOTION":15.27600826,"ECCENTRICITY":0.00042303,"INCLINATION":43.0039,"RA_OF_ASC_NODE":40.6469,"ARG_OF_PERICENTER":243.671,"MEAN_ANOMALY":116.3707,"EPHEMERIS_TYPE":0,"CLASSIFICATION_TYPE":"U","NORAD_CAT_ID":67058,"ELEMENT_SET_NO":999,"REV_AT_EPOCH":1473,"BSTAR":0.0013143484,"MEAN_MOTION_DOT":0.00036113,"MEAN_MOTION_DDOT":0}]
